LITUANICASAT-2          
1 42768U 17036D   17303.84271321  .00003341  00000-0  15644-3 0  9990
2 42768  97.4355   1.8375 0017275 144.9690 215.2685 15.20291618 19702
LEMUR-2-SHAINAJOHL      
1 42771U 17036G   17303.56909313  .00002392  00000-0  11291-3 0  9991
2 42771  97.4350   1.5913 0016330 144.9073 215.3242 15.20301801 19607
LEMUR-2-XUENITERENCE    
1 42772U 17036H   17303.56510921  .00002429  00000-0  11450-3 0  9993
2 42772  97.4350   1.5957 0015992 144.5434 215.6867 15.20339963 19602
LEMUR-2-LUCYBRYCE       
1 42773U 17036J   17303.55748796  .00002754  00000-0  12879-3 0  9993
2 42773  97.4354   1.6068 0015891 144.2666 215.9636 15.20509366 19606
LEMUR-2-KUNGFOO         
1 42774U 17036K   17303.55945276  .00002334  00000-0  10996-3 0  9998
2 42774  97.4353   1.6077 0015754 144.2421 215.9872 15.20409948 19598
AALTO-1                 
1 42775U 17036L   17303.55843170  .00001393  00000-0  67160-4 0  9999
2 42775  97.4346   1.6051 0015397 142.9278 217.3024 15.20274138 19609
URSA MAIOR              
1 42776U 17036M   17303.55494694  .00001582  00000-0  75740-4 0  9996
2 42776  97.4349   1.6143 0015260 143.1900 217.0386 15.20326852 19608
COMPASS 2               
1 42777U 17036N   17303.85374406  .00002654  00000-0  12307-3 0  9998
2 42777  97.4365   1.9954 0014302 145.9859 214.2296 15.20850955 19648
LEMUR-2-LYNSEY-SYMO     
1 42779U 17036Q   17303.57177839  .00002913  00000-0  13375-3 0  9994
2 42779  97.4356   1.7464 0013691 152.8494 207.3461 15.21119817 19593
LEMUR-2-LISASAURUS      
1 42780U 17036R   17303.57296131  .00002500  00000-0  11551-3 0  9999
2 42780  97.4353   1.7402 0013551 152.6656 207.5296 15.21035976 19600
LEMUR-2-SAM-AMELIA      
1 42781U 17036S   17303.83109844  .00002811  00000-0  12907-3 0  9994
2 42781  97.4353   2.0052 0013521 152.4550 207.7404 15.21156925 19638
LEMUR-2-MCPEAKE         
1 42782U 17036T   17303.56545071  .00002929  00000-0  13421-3 0  9993
2 42782  97.4355   1.7520 0013371 152.6698 207.5243 15.21189949 19591
DIAMOND RED             
1 42783U 17036U   17303.83526667  .00001659  00000-0  77965-4 0  9997
2 42783  97.4350   1.9986 0013407 153.3235 206.8693 15.20921340 19645
PEGASUS                 
1 42784U 17036V   17303.76541698  .00001872  00000-0  87381-4 0  9991
2 42784  97.4352   1.9413 0013336 153.9487 206.2423 15.21012229 19631
DIAMOND GREEN           
1 42785U 17036W   17303.83430989  .00001694  00000-0  79596-4 0  9991
2 42785  97.4352   2.0039 0013300 153.8118 206.3793 15.20917397 19639
DIAMOND BLUE            
1 42786U 17036X   17303.56926107  .00001730  00000-0  81241-4 0  9995
2 42786  97.4353   1.7455 0013090 154.9398 205.2476 15.20894691 19678
NUDTSAT                 
1 42787U 17036Y   17303.55333018  .00002719  00000-0  12440-3 0  9990
2 42787  97.4354   1.7659 0012946 154.8629 205.3240 15.21308361 19441
SUCHAI                  
1 42788U 17036Z   17303.55825753  .00002191  00000-0  10124-3 0  9994
2 42788  97.4351   1.7577 0012963 154.5638 205.6238 15.21173558 19677
SKCUBE                  
1 42789U 17036AA  17303.55555723  .00002049  00000-0  94859-4 0  9992
2 42789  97.4350   1.7597 0012789 154.4310 205.7561 15.21185716 19591
VZLUSAT-1               
1 42790U 17036AB  17303.41559622  .00002768  00000-0  12649-3 0  9995
2 42790  97.4350   1.6377 0012463 155.4607 204.7224 15.21347110 19578
ROBUSTA-1B              
1 42792U 17036AD  17303.61058537  .00002025  00000-0  93460-4 0  9995
2 42792  97.4348   1.8342 0012318 155.1779 205.0052 15.21319607 19615
CICERO 6                
1 42793U 17036AE  17303.86060245  .00001613  00000-0  74931-4 0  9996
2 42793  97.4342   2.1092 0011366 154.6104 205.5693 15.21391589 19721
D-SAT                   
1 42794U 17036AF  17303.55923924  .00000454  00000-0  45515-4 0  9993
2 42794  97.6267   1.4604 0126564 326.5611  32.7660 14.90684629 19517
TOKI                    
1 42820U 98067MU  17303.59859698  .00022568  00000-0  29067-3 0  9999
2 42820  51.6372  81.2180 0002662  18.7497 341.3593 15.58939721 17965
GHANASAT-1              
1 42821U 98067MV  17303.60443081  .00021924  00000-0  28417-3 0  9990
2 42821  51.6373  81.2572 0002684  23.5990 336.5125 15.58790275 17942
MAZAALAI (NUMSAT-1)     
1 42822U 98067MW  17303.86113606  .00022088  00000-0  28573-3 0  9991
2 42822  51.6375  79.9723 0002707  25.8799 334.2328 15.58838130 17960
BRAC ONNESHA            
1 42823U 98067MX  17303.60670888  .00022521  00000-0  29114-3 0  9998
2 42823  51.6382  81.2768 0005741  48.5430 311.6055 15.58831127 17942
NIGERIAEDUSAT-1         
1 42824U 98067MY  17303.61153242  .00022181  00000-0  28777-3 0  9996
2 42824  51.6388  81.3102 0005600  49.1760 310.9717 15.58746873 17949
LEMUR-2-GREENBERG       
1 42837U 17042N   17303.51410058  .00000924  00000-0  98438-4 0  9997
2 42837  97.6074 209.3711 0011820 239.9600 120.0447 14.91156813 16120
LEMUR-2-ANDIS           
1 42838U 17042P   17303.57965603  .00000967  00000-0  10276-3 0  9995
2 42838  97.6074 209.4372 0011915 239.6157 120.3885 14.91174120 16135
LEMUR-2-MONSON          
1 42839U 17042Q   17303.57321094  .00000654  00000-0  71128-4 0  9993
2 42839  97.6073 209.4447 0011713 238.4309 121.5766 14.91232883 16132
LEMUR-2-FURIAUS         
1 42840U 17042R   17303.56997102  .00001030  00000-0  10875-3 0  9993
2 42840  97.6073 209.4480 0011721 239.2362 120.7703 14.91312238 16122
LEMUR-2-PETERG          
1 42841U 17042S   17303.56044228  .00001140  00000-0  11940-3 0  9992
2 42841  97.6074 209.4614 0011396 237.5284 122.4834 14.91442634 16134
LEMUR-2-DEMBITZ         
1 42842U 17042T   17303.55883669  .00001129  00000-0  11818-3 0  9993
2 42842  97.6073 209.4615 0011393 238.1147 121.8964 14.91464204 16131
LEMUR-2-ZACHARY         
1 42845U 17042W   17303.54314898  .00001048  00000-0  10959-3 0  9993
2 42845  97.6023 209.4099 0011685 243.4443 116.5579 14.91659495 16127
FLOCK 2K-03             
1 42850U 17042AB  17303.62577099  .00009608  00000-0  29116-3 0  9997
2 42850  96.9940 206.8370 0009774 218.2524 141.8027 15.34291800 16402
FLOCK 2K-04             
1 42851U 17042AC  17303.62916287  .00012998  00000-0  39314-3 0  9991
2 42851  96.9944 206.8357 0009524 219.8278 140.2268 15.34278652 16408
FLOCK 2K-01             
1 42852U 17042AD  17303.43207655  .00011347  00000-0  34359-3 0  9994
2 42852  96.9941 206.6507 0009354 219.2952 140.7614 15.34275314 16373
FLOCK 2K-02             
1 42853U 17042AE  17303.51940203  .00002432  00000-0  78276-4 0  9999
2 42853  96.9951 206.6911 0010422 218.5304 141.5196 15.33070802 16384
FLOCK 2K-47             
1 42854U 17042AF  17303.68942359  .00008363  00000-0  25341-3 0  9995
2 42854  96.9940 206.9000 0009203 216.3765 143.6854 15.34336819 16419
FLOCK 2K-48             
1 42855U 17042AG  17303.42715730  .00010735  00000-0  32466-3 0  9991
2 42855  96.9945 206.6589 0009198 218.2365 141.8228 15.34329329 16372
FLOCK 2K-45             
1 42856U 17042AH  17303.62115742  .00002630  00000-0  81297-4 0  9993
2 42856  96.9942 206.8440 0009369 216.3284 143.7325 15.34311075 16409
FLOCK 2K-24             
1 42857U 17042AJ  17303.68528220  .00012653  00000-0  38138-3 0  9990
2 42857  96.9945 206.9060 0009433 213.2180 146.8473 15.34395868 16416
FLOCK 2K-46             
1 42858U 17042AK  17303.29278405  .00012812  00000-0  38669-3 0  9991
2 42858  96.9947 206.5422 0009545 216.6866 143.3726 15.34348642 16353
FLOCK 2K-23             
1 42859U 17042AL  17303.68279577  .00008606  00000-0  26029-3 0  9999
2 42859  96.9947 206.9127 0009605 215.6386 144.4218 15.34383721 16415
FLOCK 2K-21             
1 42860U 17042AM  17303.55053154  .00006081  00000-0  18476-3 0  9990
2 42860  96.9945 206.7907 0009612 214.8927 145.1688 15.34358466 16393
FLOCK 2K-22             
1 42861U 17042AN  17303.62736384  .00012375  00000-0  37655-3 0  9995
2 42861  96.9946 206.8410 0009592 212.8559 147.2090 15.34099217 16409
FLOCK 2K-07             
1 42862U 17042AP  17303.28767276  .00003368  00000-0  10355-3 0  9992
2 42862  96.9947 206.5469 0009824 216.8667 143.1903 15.34288018 16366
FLOCK 2K-08             
1 42863U 17042AQ  17303.54593986  .00006647  00000-0  20157-3 0  9991
2 42863  96.9942 206.7931 0009809 215.4633 144.5960 15.34386382 16393
FLOCK 2K-05             
1 42864U 17042AR  17303.67832828  .00008756  00000-0  26498-3 0  9994
2 42864  96.9945 206.9180 0009863 214.1994 145.8615 15.34358372 16413
FLOCK 2K-40             
1 42865U 17042AS  17303.28383116  .00002677  00000-0  82653-4 0  9995
2 42865  96.9946 206.5515 0009710 216.9383 143.1193 15.34330043 16356
FLOCK 2K-39             
1 42866U 17042AT  17303.41319308  .00007566  00000-0  22911-3 0  9995
2 42866  96.9941 206.6741 0009861 215.2247 144.8346 15.34385723 16377
FLOCK 2K-37             
1 42867U 17042AU  17303.54186924  .00010596  00000-0  32018-3 0  9992
2 42867  96.9945 206.8014 0009854 215.9729 144.0853 15.34356037 16394
FLOCK 2K-38             
1 42868U 17042AV  17303.79978183  .00005928  00000-0  17999-3 0  9990
2 42868  96.9944 207.0524 0009840 214.6179 145.4425 15.34390988 16431
FLOCK 2K-31             
1 42869U 17042AW  17303.73273359  .00003650  00000-0  11181-3 0  9995
2 42869  96.9942 206.9915 0009963 213.7478 146.3133 15.34348994 16425
FLOCK 2K-32             
1 42870U 17042AX  17303.53610063  .00003288  00000-0  10080-3 0  9996
2 42870  96.9943 206.8080 0009899 215.0757 144.9837 15.34398111 16390
FLOCK 2K-29             
1 42871U 17042AY  17303.73034810  .00007256  00000-0  21946-3 0  9991
2 42871  96.9945 206.9973 0010128 213.5445 146.5158 15.34432057 16425
FLOCK 2K-30             
1 42872U 17042AZ  17303.72942753  .00004426  00000-0  13456-3 0  9998
2 42872  96.9944 206.9962 0010109 214.6941 145.3645 15.34479066 16413
FLOCK 2K-44             
1 42873U 17042BA  17303.53165339  .00005206  00000-0  15842-3 0  9993
2 42873  96.9949 206.8163 0011309 203.6287 156.4439 15.34357442 16399
